{
  "norad_id": 58867,
  "name": "STARLINK-31198",
  "history": [
    {
      "epoch": "2026-04-13T04:59:06.567360Z",
      "apogee_km": 483.8592091289229,
      "perigee_km": 482.2641176636562,
      "latitude_deg": 2.2208465900874504e-06,
      "longitude_deg": 137.60343607180994,
      "height_km": 482.76584140315595,
      "semi_major_axis_km": 6861.198663396289,
      "eccentricity": 0.00011624,
      "inclination_deg": 43.0023,
      "raan_deg": 53.7826,
      "arg_perigee_deg": 275.2218,
      "mean_anomaly_deg": 84.8501,
      "mean_motion_rev_day": 15.27575803
    },
    {
      "epoch": "2026-04-14T04:31:26.829408Z",
      "apogee_km": 483.77593046103175,
      "perigee_km": 482.3140870222487,
      "latitude_deg": 1.1416603378505988e-05,
      "longitude_deg": 138.01301062377905,
      "height_km": 482.8703940216596,
      "semi_major_axis_km": 6861.18200874164,
      "eccentricity": 0.00010653,
      "inclination_deg": 43.0019,
      "raan_deg": 48.2433,
      "arg_perigee_deg": 266.1744,
      "mean_anomaly_deg": 93.8986,
      "mean_motion_rev_day": 15.27581365
    },
    {
      "epoch": "2026-04-15T04:03:47.386944Z",
      "apogee_km": 483.84335224010283,
      "perigee_km": 482.232897214828,
      "latitude_deg": -1.5196888693224682e-06,
      "longitude_deg": 138.41932781522902,
      "height_km": 482.9067724815842,
      "semi_major_axis_km": 6861.175124727465,
      "eccentricity": 0.00011736,
      "inclination_deg": 43.0006,
      "raan_deg": 42.702,
      "arg_perigee_deg": 263.433,
      "mean_anomaly_deg": 96.6388,
      "mean_motion_rev_day": 15.27583664
    },
    {
      "epoch": "2026-04-16T05:10:17.084928Z",
      "apogee_km": 484.2671307325245,
      "perigee_km": 481.7724141300687,
      "latitude_deg": 3.197197754768568e-05,
      "longitude_deg": 114.85546483352837,
      "height_km": 482.84926372582515,
      "semi_major_axis_km": 6861.156772431296,
      "eccentricity": 0.0001818,
      "inclination_deg": 43.0045,
      "raan_deg": 36.793,
      "arg_perigee_deg": 267.6123,
      "mean_anomaly_deg": 92.4521,
      "mean_motion_rev_day": 15.27589793
    },
    {
      "epoch": "2026-04-17T03:08:28.095936Z",
      "apogee_km": 484.18230771444087,
      "perigee_km": 481.8322285797158,
      "latitude_deg": 2.7234664012662424e-05,
      "longitude_deg": 139.2371176606942,
      "height_km": 482.54194062781926,
      "semi_major_axis_km": 6861.144268147078,
      "eccentricity": 0.00017126,
      "inclination_deg": 43.0041,
      "raan_deg": 31.6228,
      "arg_perigee_deg": 281.922,
      "mean_anomaly_deg": 78.144,
      "mean_motion_rev_day": 15.27593969
    },
    {
      "epoch": "2026-04-18T01:06:48.998880Z",
      "apogee_km": 485.26960591279203,
      "perigee_km": 481.4360915343095,
      "latitude_deg": 3.125725363159258e-05,
      "longitude_deg": 163.5776499511214,
      "height_km": 482.7300304782236,
      "semi_major_axis_km": 6861.4898487235505,
      "eccentricity": 0.00027935,
      "inclination_deg": 43.0051,
      "raan_deg": 26.4528,
      "arg_perigee_deg": 282.08,
      "mean_anomaly_deg": 77.9739,
      "mean_motion_rev_day": 15.27478564
    },
    {
      "epoch": "2026-04-19T02:13:10.306560Z",
      "apogee_km": 484.0318560776932,
      "perigee_km": 482.01247971139765,
      "latitude_deg": 5.2226453874803854e-05,
      "longitude_deg": 140.0532267431576,
      "height_km": 482.8516249143238,
      "semi_major_axis_km": 6861.159167894545,
      "eccentricity": 0.00014716,
      "inclination_deg": 43.0022,
      "raan_deg": 20.5482,
      "arg_perigee_deg": 267.0214,
      "mean_anomaly_deg": 93.047,
      "mean_motion_rev_day": 15.27588993
    },
    {
      "epoch": "2026-04-20T01:45:32.192064Z",
      "apogee_km": 483.8923122733413,
      "perigee_km": 482.22298361549565,
      "latitude_deg": 3.191643756069321e-05,
      "longitude_deg": 140.45678485481724,
      "height_km": 482.7798931008633,
      "semi_major_axis_km": 6861.194647944418,
      "eccentricity": 0.00012165,
      "inclination_deg": 43.0033,
      "raan_deg": 15.0097,
      "arg_perigee_deg": 273.7557,
      "mean_anomaly_deg": 86.3156,
      "mean_motion_rev_day": 15.27577144
    },
    {
      "epoch": "2026-04-21T01:17:52.124064Z",
      "apogee_km": 483.9637849540395,
      "perigee_km": 482.1115422418552,
      "latitude_deg": -1.3332430694797213e-05,
      "longitude_deg": 140.86727737396274,
      "height_km": 482.76530586069146,
      "semi_major_axis_km": 6861.174663597947,
      "eccentricity": 0.00013498,
      "inclination_deg": 43.0039,
      "raan_deg": 9.47,
      "arg_perigee_deg": 273.0613,
      "mean_anomaly_deg": 87.0084,
      "mean_motion_rev_day": 15.27583818
    },
    {
      "epoch": "2026-04-22T02:24:22.281696Z",
      "apogee_km": 484.04753559860364,
      "perigee_km": 482.0398169091177,
      "latitude_deg": 1.963531197011094e-05,
      "longitude_deg": 117.30278859927706,
      "height_km": 482.63998929265136,
      "semi_major_axis_km": 6861.18067625386,
      "eccentricity": 0.00014631,
      "inclination_deg": 43.0042,
      "raan_deg": 3.5623,
      "arg_perigee_deg": 280.3824,
      "mean_anomaly_deg": 79.6863,
      "mean_motion_rev_day": 15.2758181
    },
    {
      "epoch": "2026-04-23T01:56:44.028960Z",
      "apogee_km": 483.99080405860786,
      "perigee_km": 482.11111300548964,
      "latitude_deg": 5.093862369090832e-06,
      "longitude_deg": 117.7064294147744,
      "height_km": 482.8778156963612,
      "semi_major_axis_km": 6861.1879585320485,
      "eccentricity": 0.00013698,
      "inclination_deg": 43.0043,
      "raan_deg": 358.0233,
      "arg_perigee_deg": 266.9681,
      "mean_anomaly_deg": 93.1014,
      "mean_motion_rev_day": 15.27579378
    },
    {
      "epoch": "2026-04-23T23:54:55.182528Z",
      "apogee_km": 483.795072831007,
      "perigee_km": 482.32567880100123,
      "latitude_deg": 2.3456860622265438e-07,
      "longitude_deg": 142.0889832241863,
      "height_km": 482.64981050459795,
      "semi_major_axis_km": 6861.197375816004,
      "eccentricity": 0.00010708,
      "inclination_deg": 43.005,
      "raan_deg": 352.8546,
      "arg_perigee_deg": 284.7891,
      "mean_anomaly_deg": 75.2842,
      "mean_motion_rev_day": 15.27576233
    },
    {
      "epoch": "2026-04-25T15:08:49.454016Z",
      "apogee_km": 484.09774050721444,
      "perigee_km": 481.98449764653833,
      "latitude_deg": -3.4861510874315365e-06,
      "longitude_deg": -97.23054328379946,
      "height_km": 482.92100368714046,
      "semi_major_axis_km": 6861.178119076876,
      "eccentricity": 0.000154,
      "inclination_deg": 43.0045,
      "raan_deg": 343.6224,
      "arg_perigee_deg": 264.4284,
      "mean_anomaly_deg": 95.6392,
      "mean_motion_rev_day": 15.27582664
    },
    {
      "epoch": "2026-04-26T20:57:48.430080Z",
      "apogee_km": 483.814417978394,
      "perigee_km": 482.384810717429,
      "latitude_deg": 7.258475887873804e-06,
      "longitude_deg": 167.2805197302683,
      "height_km": 483.3847927389642,
      "semi_major_axis_km": 6861.236614347911,
      "eccentricity": 0.00010418,
      "inclination_deg": 43.0012,
      "raan_deg": 336.6037,
      "arg_perigee_deg": 224.5955,
      "mean_anomaly_deg": 135.4813,
      "mean_motion_rev_day": 15.27563129
    },
    {
      "epoch": "2026-04-27T20:30:09.418752Z",
      "apogee_km": 484.3917876387259,
      "perigee_km": 481.72415503386947,
      "latitude_deg": -3.2436111152821464e-05,
      "longitude_deg": 167.6885062828095,
      "height_km": 483.03564516121855,
      "semi_major_axis_km": 6861.194971336297,
      "eccentricity": 0.0001944,
      "inclination_deg": 43.0056,
      "raan_deg": 331.0659,
      "arg_perigee_deg": 261.378,
      "mean_anomaly_deg": 98.6851,
      "mean_motion_rev_day": 15.27577036
    },
    {
      "epoch": "2026-04-28T07:29:15.282816Z",
      "apogee_km": 483.9484662363602,
      "perigee_km": 482.1988575175819,
      "latitude_deg": 2.160528905216819e-05,
      "longitude_deg": -0.12050572310328436,
      "height_km": 482.88682897416584,
      "semi_major_axis_km": 6861.21066187697,
      "eccentricity": 0.0001275,
      "inclination_deg": 43.0041,
      "raan_deg": 328.4824,
      "arg_perigee_deg": 267.6336,
      "mean_anomaly_deg": 92.437,
      "mean_motion_rev_day": 15.27571796
    },
    {
      "epoch": "2026-04-29T07:01:36.573024Z",
      "apogee_km": 483.9857250585237,
      "perigee_km": 482.3252922714264,
      "latitude_deg": -2.2492081493928563e-05,
      "longitude_deg": 0.2812160860401179,
      "height_km": 483.24567232134314,
      "semi_major_axis_km": 6861.292508664975,
      "eccentricity": 0.000121,
      "inclination_deg": 43.0069,
      "raan_deg": 322.9396,
      "arg_perigee_deg": 247.8538,
      "mean_anomaly_deg": 112.2185,
      "mean_motion_rev_day": 15.27544463
    },
    {
      "epoch": "2026-04-30T12:50:34.190880Z",
      "apogee_km": 484.20718044543264,
      "perigee_km": 481.8878256360249,
      "latitude_deg": -3.0363061035427804e-05,
      "longitude_deg": -95.19656659216132,
      "height_km": 483.04181939982215,
      "semi_major_axis_km": 6861.1845030407285,
      "eccentricity": 0.00016902,
      "inclination_deg": 43.0043,
      "raan_deg": 315.9264,
      "arg_perigee_deg": 259.2176,
      "mean_anomaly_deg": 100.8485,
      "mean_motion_rev_day": 15.27580532
    },
    {
      "epoch": "2026-05-02T05:38:37.849920Z",
      "apogee_km": 484.1091432555213,
      "perigee_km": 482.002757019829,
      "latitude_deg": -4.166425737909143e-05,
      "longitude_deg": 1.5126350681850564,
      "height_km": 482.9357327365475,
      "semi_major_axis_km": 6861.192950137675,
      "eccentricity": 0.0001535,
      "inclination_deg": 43.0034,
      "raan_deg": 306.3265,
      "arg_perigee_deg": 264.4091,
      "mean_anomaly_deg": 95.6585,
      "mean_motion_rev_day": 15.27577711
    }
  ]
}